ONEWEB-0584             
1 54651U 22166K   23237.64369092 -.00000041  00000+0 -13129-3 0  9999
2 54651  87.9181  88.3792 0001485  73.5246 286.6051 13.21825210 35909
ONEWEB-0585             
1 54652U 22166L   23237.66680646  .00000104  00000+0  21922-3 0  9991
2 54652  87.9181  88.3753 0001806  92.8442 267.2899 13.21827274 35914
ONEWEB-0586             
1 54653U 22166M   23238.05789917  .00000742  00000+0  17654-2 0  9991
2 54653  87.9156  88.3532 0001341  97.0381 263.0906 13.21833134 36438
ONEWEB-0587             
1 54654U 22166N   23237.69099315  .00000136  00000+0  29663-3 0  9998
2 54654  87.9174  88.3656 0002427  86.2195 273.9216 13.21822743 36073
ONEWEB-0589             
1 54655U 22166P   23237.60161639 -.00000206  00000+0 -52981-3 0  9998
2 54655  87.9183  88.3937 0001092  46.6003 313.5222 13.21823655 35925
ONEWEB-0590             
1 54656U 22166Q   23237.62685876  .00000019  00000+0  14686-4 0  9996
2 54656  87.9196  88.3931 0001945  81.1453 278.9901 13.21829458 35918
ONEWEB-0591             
1 54657U 22166R   23237.63948578 -.00000027  00000+0 -96659-4 0  9990
2 54657  87.9188  88.3892 0001686  77.6285 282.5037 13.21824546 35948
ONEWEB-0592             
1 54658U 22166S   23237.64159560  .00000083  00000+0  16862-3 0  9994
2 54658  87.9174  88.3769 0001669  72.7637 287.3679 13.21825353 35824
